[{"OBJECT_NAME":"TIANMU-1 14","OBJECT_ID":"2023-205D","EPOCH":"2026-03-09T23:38:37.144032","MEAN_MOTION":15.2583937,"ECCENTRICITY":0.00072842,"INCLINATION":97.35,"RA_OF_ASC_NODE":91.4174,"ARG_OF_PERICENTER":335.7472,"MEAN_ANOMALY":24.3423,"EPHEMERIS_TYPE":0,"CLASSIFICATION_TYPE":"U","NORAD_CAT_ID":58648,"ELEMENT_SET_NO":999,"REV_AT_EPOCH":12237,"BSTAR":0.00030290643,"MEAN_MOTION_DOT":7.686e-5,"MEAN_MOTION_DDOT":0},{"OBJECT_NAME":"STARLINK-31101","OBJECT_ID":"2024-005K","EPOCH":"2026-03-09T19:28:25.332384","MEAN_MOTION":15.26741486,"ECCENTRICITY":0.0001927,"INCLINATION":43.0043,"RA_OF_ASC_NODE":218.9452,"ARG_OF_PERICENTER":280.2239,"MEAN_ANOMALY":79.8395,"EPHEMERIS_TYPE":0,"CLASSIFICATION_TYPE":"U","NORAD_CAT_ID":58737,"ELEMENT_SET_NO":999,"REV_AT_EPOCH":12045,"BSTAR":0.00022918809,"MEAN_MOTION_DOT":5.893e-5,"MEAN_MOTION_DDOT":0}]
